IRIDIUM 33              
1 24946U 97051C   26062.38086062  .00000390  00000+0  12986-3 0  9996
2 24946  86.3870  34.3460 0006486 325.4897  34.5877 14.35096674489911
IRIDIUM 33 DEB          
1 33773U 97051L   26062.82763245  .00001533  00000+0  44792-3 0  9998
2 33773  86.4026  26.2055 0008943 241.4219 118.6083 14.43463136895170
IRIDIUM 33 DEB          
1 33775U 97051N   26062.38061544  .00001971  00000+0  59823-3 0  9991
2 33775  86.3667  15.1115 0010803 257.5719 232.7912 14.41732730893025
IRIDIUM 33 DEB          
1 33776U 97051P   26062.44808571  .00001102  00000+0  35497-3 0  9995
2 33776  86.4014  46.8498 0012512 298.0527 181.0750 14.38391872892427
IRIDIUM 33 DEB          
1 33777U 97051Q   26062.58841093  .00004107  00000+0  92337-3 0  9991
2 33777  86.3833   0.0150 0007120   7.0563 353.0744 14.56281487897104
IRIDIUM 33 DEB          
1 33850U 97051T   26062.34360331  .00001862  00000+0  55643-3 0  9992
2 33850  86.3467 355.5203 0008886 267.7575 216.4256 14.42463301893146
IRIDIUM 33 DEB          
1 33853U 97051W   26062.64912846  .00003155  00000+0  17772-2 0  9999
2 33853  86.0006 314.3370 0210744 348.6577  37.7724 13.99551729864776
IRIDIUM 33 DEB          
1 33860U 97051AD  26062.57624137  .00011776  00000+0  20055-2 0  9998
2 33860  86.3876 351.4201 0011683  63.7778  59.4035 14.68924142899084
IRIDIUM 33 DEB          
1 33862U 97051AF  26062.76093566  .00015581  00000+0  24473-2 0  9993
2 33862  86.4132   1.7428 0050060 143.2439 255.8857 14.71655512900148
IRIDIUM 33 DEB          
1 33866U 97051AK  26062.51662007  .00003673  00000+0  14454-2 0  9999
2 33866  86.2980  58.8313 0110869 262.7567 224.4160 14.25693826879615
IRIDIUM 33 DEB          
1 33870U 97051AP  26062.84937296  .00004039  00000+0  11183-2 0  9998
2 33870  86.3770  23.4661 0018251 275.7746 113.0232 14.46358523893093
IRIDIUM 33 DEB          
1 33881U 97051BA  26062.52800019  .00018342  00000+0  38395-2 0  9993
2 33881  86.3811  71.5541 0052865 263.7230 221.7417 14.58792455886774
IRIDIUM 33 DEB          
1 33884U 97051BD  26062.72293078  .00020038  00000+0  26342-2 0  9993
2 33884  86.3726 333.2074 0013859  34.8849 347.6457 14.80052102900440
IRIDIUM 33 DEB          
1 33886U 97051BF  26062.43667586  .00000793  00000+0  26541-3 0  9990
2 33886  86.3834  33.2372 0013706 352.0056 132.2889 14.36158856892100
IRIDIUM 33 DEB          
1 33887U 97051BG  26062.71870794  .00000567  00000+0  18371-3 0  9990
2 33887  86.3084 328.5173 0005839 356.6603  60.2860 14.37317995893284
IRIDIUM 33 DEB          
1 33953U 97051BN  26062.35303233  .00006486  00000+0  14578-2 0  9993
2 33953  86.3879  18.7559 0015233 178.0092 335.1570 14.56309544894761
