[{"OBJECT_NAME":"IRIDIUM 33","OBJECT_ID":"1997-051C","EPOCH":"2026-03-03T09:08:26.357568","MEAN_MOTION":14.35096674,"ECCENTRICITY":0.00064865,"INCLINATION":86.387,"RA_OF_ASC_NODE":34.346,"ARG_OF_PERICENTER":325.4897,"MEAN_ANOMALY":34.5877,"EPHEMERIS_TYPE":0,"CLASSIFICATION_TYPE":"U","NORAD_CAT_ID":24946,"ELEMENT_SET_NO":999,"REV_AT_EPOCH":48991,"BSTAR":0.00012985582,"MEAN_MOTION_DOT":3.9e-6,"MEAN_MOTION_DDOT":0},{"OBJECT_NAME":"IRIDIUM 33 DEB","OBJECT_ID":"1997-051L","EPOCH":"2026-03-03T19:51:47.443680","MEAN_MOTION":14.43463136,"ECCENTRICITY":0.0008943,"INCLINATION":86.4026,"RA_OF_ASC_NODE":26.2055,"ARG_OF_PERICENTER":241.4219,"MEAN_ANOMALY":118.6083,"EPHEMERIS_TYPE":0,"CLASSIFICATION_TYPE":"U","NORAD_CAT_ID":33773,"ELEMENT_SET_NO":999,"REV_AT_EPOCH":89517,"BSTAR":0.00044792,"MEAN_MOTION_DOT":1.533e-5,"MEAN_MOTION_DDOT":0},{"OBJECT_NAME":"IRIDIUM 33 DEB","OBJECT_ID":"1997-051N","EPOCH":"2026-03-03T09:08:05.174016","MEAN_MOTION":14.4173273,"ECCENTRICITY":0.00108037,"INCLINATION":86.3667,"RA_OF_ASC_NODE":15.1115,"ARG_OF_PERICENTER":257.5719,"MEAN_ANOMALY":232.7912,"EPHEMERIS_TYPE":0,"CLASSIFICATION_TYPE":"U","NORAD_CAT_ID":33775,"ELEMENT_SET_NO":999,"REV_AT_EPOCH":89302,"BSTAR":0.00059823229,"MEAN_MOTION_DOT":1.971e-5,"MEAN_MOTION_DDOT":0},{"OBJECT_NAME":"IRIDIUM 33 DEB","OBJECT_ID":"1997-051P","EPOCH":"2026-03-03T10:45:14.605344","MEAN_MOTION":14.38391872,"ECCENTRICITY":0.00125127,"INCLINATION":86.4014,"RA_OF_ASC_NODE":46.8498,"ARG_OF_PERICENTER":298.0527,"MEAN_ANOMALY":181.075,"EPHEMERIS_TYPE":0,"CLASSIFICATION_TYPE":"U","NORAD_CAT_ID":33776,"ELEMENT_SET_NO":999,"REV_AT_EPOCH":89242,"BSTAR":0.00035496764,"MEAN_MOTION_DOT":1.102e-5,"MEAN_MOTION_DDOT":0},{"OBJECT_NAME":"IRIDIUM 33 DEB","OBJECT_ID":"1997-051Q","EPOCH":"2026-03-03T14:07:18.704352","MEAN_MOTION":14.56281487,"ECCENTRICITY":0.000712,"INCLINATION":86.3833,"RA_OF_ASC_NODE":0.015,"ARG_OF_PERICENTER":7.0563,"MEAN_ANOMALY":353.0744,"EPHEMERIS_TYPE":0,"CLASSIFICATION_TYPE":"U","NORAD_CAT_ID":33777,"ELEMENT_SET_NO":999,"REV_AT_EPOCH":89710,"BSTAR":0.00092337,"MEAN_MOTION_DOT":4.107e-5,"MEAN_MOTION_DDOT":0},{"OBJECT_NAME":"IRIDIUM 33 DEB","OBJECT_ID":"1997-051T","EPOCH":"2026-03-03T08:14:47.325984","MEAN_MOTION":14.42463301,"ECCENTRICITY":0.00088867,"INCLINATION":86.3467,"RA_OF_ASC_NODE":355.5203,"ARG_OF_PERICENTER":267.7575,"MEAN_ANOMALY":216.4256,"EPHEMERIS_TYPE":0,"CLASSIFICATION_TYPE":"U","NORAD_CAT_ID":33850,"ELEMENT_SET_NO":999,"REV_AT_EPOCH":89314,"BSTAR":0.00055643008,"MEAN_MOTION_DOT":1.862e-5,"MEAN_MOTION_DDOT":0},{"OBJECT_NAME":"IRIDIUM 33 DEB","OBJECT_ID":"1997-051W","EPOCH":"2026-03-03T15:34:44.698944","MEAN_MOTION":13.99551729,"ECCENTRICITY":0.0210744,"INCLINATION":86.0006,"RA_OF_ASC_NODE":314.337,"ARG_OF_PERICENTER":348.6577,"MEAN_ANOMALY":37.7724,"EPHEMERIS_TYPE":0,"CLASSIFICATION_TYPE":"U","NORAD_CAT_ID":33853,"ELEMENT_SET_NO":999,"REV_AT_EPOCH":86477,"BSTAR":0.0017772,"MEAN_MOTION_DOT":3.155e-5,"MEAN_MOTION_DDOT":0},{"OBJECT_NAME":"IRIDIUM 33 DEB","OBJECT_ID":"1997-051AD","EPOCH":"2026-03-03T13:49:47.254368","MEAN_MOTION":14.68924142,"ECCENTRICITY":0.0011683,"INCLINATION":86.3876,"RA_OF_ASC_NODE":351.4201,"ARG_OF_PERICENTER":63.7778,"MEAN_ANOMALY":59.4035,"EPHEMERIS_TYPE":0,"CLASSIFICATION_TYPE":"U","NORAD_CAT_ID":33860,"ELEMENT_SET_NO":999,"REV_AT_EPOCH":89908,"BSTAR":0.0020055,"MEAN_MOTION_DOT":0.00011776,"MEAN_MOTION_DDOT":0},{"OBJECT_NAME":"IRIDIUM 33 DEB","OBJECT_ID":"1997-051AF","EPOCH":"2026-03-03T18:15:44.841024","MEAN_MOTION":14.71655512,"ECCENTRICITY":0.005006,"INCLINATION":86.4132,"RA_OF_ASC_NODE":1.7428,"ARG_OF_PERICENTER":143.2439,"MEAN_ANOMALY":255.8857,"EPHEMERIS_TYPE":0,"CLASSIFICATION_TYPE":"U","NORAD_CAT_ID":33862,"ELEMENT_SET_NO":999,"REV_AT_EPOCH":90014,"BSTAR":0.0024473,"MEAN_MOTION_DOT":0.00015581,"MEAN_MOTION_DDOT":0},{"OBJECT_NAME":"IRIDIUM 33 DEB","OBJECT_ID":"1997-051AK","EPOCH":"2026-03-03T12:23:55.974048","MEAN_MOTION":14.25693826,"ECCENTRICITY":0.01108694,"INCLINATION":86.298,"RA_OF_ASC_NODE":58.8313,"ARG_OF_PERICENTER":262.7567,"MEAN_ANOMALY":224.416,"EPHEMERIS_TYPE":0,"CLASSIFICATION_TYPE":"U","NORAD_CAT_ID":33866,"ELEMENT_SET_NO":999,"REV_AT_EPOCH":87961,"BSTAR":0.0014454251,"MEAN_MOTION_DOT":3.673e-5,"MEAN_MOTION_DDOT":0},{"OBJECT_NAME":"IRIDIUM 33 DEB","OBJECT_ID":"1997-051AP","EPOCH":"2026-03-03T20:23:05.823744","MEAN_MOTION":14.46358523,"ECCENTRICITY":0.0018251,"INCLINATION":86.377,"RA_OF_ASC_NODE":23.4661,"ARG_OF_PERICENTER":275.7746,"MEAN_ANOMALY":113.0232,"EPHEMERIS_TYPE":0,"CLASSIFICATION_TYPE":"U","NORAD_CAT_ID":33870,"ELEMENT_SET_NO":999,"REV_AT_EPOCH":89309,"BSTAR":0.0011183,"MEAN_MOTION_DOT":4.039e-5,"MEAN_MOTION_DDOT":0},{"OBJECT_NAME":"IRIDIUM 33 DEB","OBJECT_ID":"1997-051BA","EPOCH":"2026-03-03T12:40:19.216416","MEAN_MOTION":14.58792455,"ECCENTRICITY":0.00528655,"INCLINATION":86.3811,"RA_OF_ASC_NODE":71.5541,"ARG_OF_PERICENTER":263.723,"MEAN_ANOMALY":221.7417,"EPHEMERIS_TYPE":0,"CLASSIFICATION_TYPE":"U","NORAD_CAT_ID":33881,"ELEMENT_SET_NO":999,"REV_AT_EPOCH":88677,"BSTAR":0.0038394739,"MEAN_MOTION_DOT":0.00018342,"MEAN_MOTION_DDOT":0},{"OBJECT_NAME":"IRIDIUM 33 DEB","OBJECT_ID":"1997-051BD","EPOCH":"2026-03-03T17:21:01.219392","MEAN_MOTION":14.80052102,"ECCENTRICITY":0.0013859,"INCLINATION":86.3726,"RA_OF_ASC_NODE":333.2074,"ARG_OF_PERICENTER":34.8849,"MEAN_ANOMALY":347.6457,"EPHEMERIS_TYPE":0,"CLASSIFICATION_TYPE":"U","NORAD_CAT_ID":33884,"ELEMENT_SET_NO":999,"REV_AT_EPOCH":90044,"BSTAR":0.0026342,"MEAN_MOTION_DOT":0.00020038,"MEAN_MOTION_DDOT":0},{"OBJECT_NAME":"IRIDIUM 33 DEB","OBJECT_ID":"1997-051BF","EPOCH":"2026-03-03T10:28:48.794304","MEAN_MOTION":14.36158856,"ECCENTRICITY":0.0013706,"INCLINATION":86.3834,"RA_OF_ASC_NODE":33.2372,"ARG_OF_PERICENTER":352.0056,"MEAN_ANOMALY":132.2889,"EPHEMERIS_TYPE":0,"CLASSIFICATION_TYPE":"U","NORAD_CAT_ID":33886,"ELEMENT_SET_NO":999,"REV_AT_EPOCH":89210,"BSTAR":0.00026541132,"MEAN_MOTION_DOT":7.93e-6,"MEAN_MOTION_DDOT":0},{"OBJECT_NAME":"IRIDIUM 33 DEB","OBJECT_ID":"1997-051BG","EPOCH":"2026-03-03T17:14:56.366016","MEAN_MOTION":14.37317995,"ECCENTRICITY":0.0005839,"INCLINATION":86.3084,"RA_OF_ASC_NODE":328.5173,"ARG_OF_PERICENTER":356.6603,"MEAN_ANOMALY":60.286,"EPHEMERIS_TYPE":0,"CLASSIFICATION_TYPE":"U","NORAD_CAT_ID":33887,"ELEMENT_SET_NO":999,"REV_AT_EPOCH":89328,"BSTAR":0.00018371,"MEAN_MOTION_DOT":5.67e-6,"MEAN_MOTION_DDOT":0},{"OBJECT_NAME":"IRIDIUM 33 DEB","OBJECT_ID":"1997-051BN","EPOCH":"2026-03-03T08:28:21.993312","MEAN_MOTION":14.56309544,"ECCENTRICITY":0.0015233,"INCLINATION":86.3879,"RA_OF_ASC_NODE":18.7559,"ARG_OF_PERICENTER":178.0092,"MEAN_ANOMALY":335.157,"EPHEMERIS_TYPE":0,"CLASSIFICATION_TYPE":"U","NORAD_CAT_ID":33953,"ELEMENT_SET_NO":999,"REV_AT_EPOCH":89476,"BSTAR":0.0014577652,"MEAN_MOTION_DOT":6.486e-5,"MEAN_MOTION_DDOT":0}]
